KINEIS-5E               
1 62083U 24219C   26115.84727655  .00000640  00000+0  10884-3 0  9999
2 62083  97.8947 276.2906 0007768  78.5631 281.6448 14.72320620 76064
KINEIS-5A               
1 62084U 24219D   26115.88216551  .00000926  00000+0  15419-3 0  9998
2 62084  97.9292 276.5800 0007241  91.2213 268.9824 14.72286439 76075
KINEIS-5B               
1 62085U 24219E   26115.86047973  .00001023  00000+0  14823-3 0  9994
2 62085  98.0016 280.0173 0003288  88.2697 271.8891 14.78214437 76278
KINEIS-2C               
1 62929U 25028B   26115.68598792  .00001032  00000+0  16880-3 0  9995
2 62929  98.0441 170.2790 0001961 132.9522 227.1851 14.72915545 64888
KINEIS-2D               
1 62930U 25028C   26115.70273891  .00001427  00000+0  21703-3 0  9998
2 62930  97.9327 169.1557 0003713  39.2250 320.9228 14.75513069 64971
KINEIS-2E               
1 62931U 25028D   26115.71961582  .00001208  00000+0  17908-3 0  9990
2 62931  97.8994 168.4651 0001403  79.5520 280.5848 14.76860833 65031
KINEIS-2A               
1 62932U 25028E   26115.72152086  .00001120  00000+0  18547-3 0  9996
2 62932  98.1183 171.0411 0001829 330.9790  29.1315 14.72222426 64889
KINEIS-2B               
1 62934U 25028G   26115.70965304  .00001094  00000+0  17697-3 0  9996
2 62934  97.9709 169.5186 0002545 343.5324  16.5801 14.73246742 64936
KINEIS-4E               
1 63300U 25056A   26114.90055321  .00000953  00000+0  15818-3 0  9991
2 63300  97.9216 240.2625 0000679  73.7768 286.3514 14.72366882 59289
KINEIS-4C               
1 63301U 25056B   26115.86375134  .00000202  00000+0  39551-4 0  9993
2 63301  97.9241 241.4010 0004595 113.7140 246.4550 14.72371268 59437
KINEIS-4D               
1 63302U 25056C   26115.80066656  .00000457  00000+0  80001-4 0  9992
2 63302  97.9364 241.3328 0003636 118.4382 241.7192 14.72339527 59421
KINEIS-4A               
1 63303U 25056D   26115.35832473  .00003935  00000+0  63087-3 0  9999
2 63303  97.9271 240.8180 0003103 104.9315 255.2236 14.72249150 59357
KINEIS-4B               
1 63304U 25056E   26114.93368483  .00000015  00000+0  10088-4 0  9998
2 63304  97.9285 240.4487 0006846  96.2822 263.9165 14.72278046 59287
